[{"OBJECT_NAME":"TRANSPORTER-15 OBJECT DD","OBJECT_ID":"2025-276DD","EPOCH":"2026-03-09T18:14:00.417120","MEAN_MOTION":15.21415717,"ECCENTRICITY":0.00010897,"INCLINATION":97.4276,"RA_OF_ASC_NODE":144.305,"ARG_OF_PERICENTER":138.099,"MEAN_ANOMALY":222.0329,"EPHEMERIS_TYPE":0,"CLASSIFICATION_TYPE":"U","NORAD_CAT_ID":66765,"ELEMENT_SET_NO":999,"REV_AT_EPOCH":1534,"BSTAR":0.00044710703,"MEAN_MOTION_DOT":9.972e-5,"MEAN_MOTION_DDOT":0},{"OBJECT_NAME":"HORS 5","OBJECT_ID":"2025-313AM","EPOCH":"2026-03-09T21:29:36.364128","MEAN_MOTION":15.22460599,"ECCENTRICITY":0.00102591,"INCLINATION":97.4003,"RA_OF_ASC_NODE":145.2415,"ARG_OF_PERICENTER":355.2078,"MEAN_ANOMALY":4.9058,"EPHEMERIS_TYPE":0,"CLASSIFICATION_TYPE":"U","NORAD_CAT_ID":67283,"ELEMENT_SET_NO":999,"REV_AT_EPOCH":1085,"BSTAR":0.0004492473,"MEAN_MOTION_DOT":0.00010348,"MEAN_MOTION_DDOT":0}]
